[{"OBJECT_NAME":"ONEWEB-0593","OBJECT_ID":"2022-166T","EPOCH":"2025-10-05T02:05:27.362400","MEAN_MOTION":13.21824659,"ECCENTRICITY":0.0001735,"INCLINATION":87.9174,"RA_OF_ASC_NODE":294.8861,"ARG_OF_PERICENTER":89.1599,"MEAN_ANOMALY":270.9734,"EPHEMERIS_TYPE":0,"CLASSIFICATION_TYPE":"U","NORAD_CAT_ID":54659,"ELEMENT_SET_NO":999,"REV_AT_EPOCH":13784,"BSTAR":5.1169e-5,"MEAN_MOTION_DOT":3.4e-7,"MEAN_MOTION_DDOT":0},{"OBJECT_NAME":"ONEWEB-0594","OBJECT_ID":"2022-166U","EPOCH":"2025-10-05T02:32:44.328768","MEAN_MOTION":13.21825785,"ECCENTRICITY":0.000186,"INCLINATION":87.9178,"RA_OF_ASC_NODE":294.8996,"ARG_OF_PERICENTER":92.6246,"MEAN_ANOMALY":267.5101,"EPHEMERIS_TYPE":0,"CLASSIFICATION_TYPE":"U","NORAD_CAT_ID":54660,"ELEMENT_SET_NO":999,"REV_AT_EPOCH":13786,"BSTAR":-1.9101e-5,"MEAN_MOTION_DOT":5.0e-8,"MEAN_MOTION_DDOT":0},{"OBJECT_NAME":"ONEWEB-0595","OBJECT_ID":"2022-166V","EPOCH":"2025-10-05T02:00:56.418912","MEAN_MOTION":13.21824408,"ECCENTRICITY":0.0002053,"INCLINATION":87.9177,"RA_OF_ASC_NODE":294.8788,"ARG_OF_PERICENTER":96.0154,"MEAN_ANOMALY":264.1214,"EPHEMERIS_TYPE":0,"CLASSIFICATION_TYPE":"U","NORAD_CAT_ID":54661,"ELEMENT_SET_NO":999,"REV_AT_EPOCH":13783,"BSTAR":-1.3563e-5,"MEAN_MOTION_DOT":7.0e-8,"MEAN_MOTION_DDOT":0},{"OBJECT_NAME":"ONEWEB-0596","OBJECT_ID":"2022-166W","EPOCH":"2025-10-05T01:22:20.497152","MEAN_MOTION":13.2182472,"ECCENTRICITY":0.0001977,"INCLINATION":87.9177,"RA_OF_ASC_NODE":294.8997,"ARG_OF_PERICENTER":91.5622,"MEAN_ANOMALY":268.5739,"EPHEMERIS_TYPE":0,"CLASSIFICATION_TYPE":"U","NORAD_CAT_ID":54662,"ELEMENT_SET_NO":999,"REV_AT_EPOCH":13783,"BSTAR":0.00021953,"MEAN_MOTION_DOT":1.04e-6,"MEAN_MOTION_DDOT":0},{"OBJECT_NAME":"ONEWEB-0597","OBJECT_ID":"2022-166X","EPOCH":"2025-10-05T02:44:05.529696","MEAN_MOTION":13.21825277,"ECCENTRICITY":0.0001857,"INCLINATION":87.9174,"RA_OF_ASC_NODE":294.8922,"ARG_OF_PERICENTER":87.7584,"MEAN_ANOMALY":272.3762,"EPHEMERIS_TYPE":0,"CLASSIFICATION_TYPE":"U","NORAD_CAT_ID":54663,"ELEMENT_SET_NO":999,"REV_AT_EPOCH":13784,"BSTAR":-4.1295e-5,"MEAN_MOTION_DOT":-4.0e-8,"MEAN_MOTION_DDOT":0},{"OBJECT_NAME":"ONEWEB-0600","OBJECT_ID":"2022-166Y","EPOCH":"2025-10-05T02:19:06.856032","MEAN_MOTION":13.21825166,"ECCENTRICITY":0.0001756,"INCLINATION":87.9178,"RA_OF_ASC_NODE":294.8877,"ARG_OF_PERICENTER":88.5455,"MEAN_ANOMALY":271.588,"EPHEMERIS_TYPE":0,"CLASSIFICATION_TYPE":"U","NORAD_CAT_ID":54664,"ELEMENT_SET_NO":999,"REV_AT_EPOCH":13781,"BSTAR":-0.00017227,"MEAN_MOTION_DOT":-5.8e-7,"MEAN_MOTION_DDOT":0},{"OBJECT_NAME":"ONEWEB-0601","OBJECT_ID":"2022-166Z","EPOCH":"2025-10-05T02:07:44.607936","MEAN_MOTION":13.21823616,"ECCENTRICITY":0.0001862,"INCLINATION":87.9182,"RA_OF_ASC_NODE":294.9066,"ARG_OF_PERICENTER":81.999,"MEAN_ANOMALY":278.1355,"EPHEMERIS_TYPE":0,"CLASSIFICATION_TYPE":"U","NORAD_CAT_ID":54665,"ELEMENT_SET_NO":999,"REV_AT_EPOCH":13800,"BSTAR":-5.1964e-5,"MEAN_MOTION_DOT":-8.0e-8,"MEAN_MOTION_DDOT":0},{"OBJECT_NAME":"ONEWEB-0602","OBJECT_ID":"2022-166AA","EPOCH":"2025-10-05T03:04:51.027168","MEAN_MOTION":13.2215895,"ECCENTRICITY":0.0001062,"INCLINATION":87.9188,"RA_OF_ASC_NODE":294.9005,"ARG_OF_PERICENTER":81.4032,"MEAN_ANOMALY":278.7223,"EPHEMERIS_TYPE":0,"CLASSIFICATION_TYPE":"U","NORAD_CAT_ID":54666,"ELEMENT_SET_NO":999,"REV_AT_EPOCH":13785,"BSTAR":0.057615,"MEAN_MOTION_DOT":0.00023989,"MEAN_MOTION_DDOT":0},{"OBJECT_NAME":"ONEWEB-0603","OBJECT_ID":"2022-166AB","EPOCH":"2025-10-05T01:24:35.782272","MEAN_MOTION":13.21825484,"ECCENTRICITY":0.0001782,"INCLINATION":87.9183,"RA_OF_ASC_NODE":294.8496,"ARG_OF_PERICENTER":88.1187,"MEAN_ANOMALY":272.0151,"EPHEMERIS_TYPE":0,"CLASSIFICATION_TYPE":"U","NORAD_CAT_ID":54667,"ELEMENT_SET_NO":999,"REV_AT_EPOCH":13777,"BSTAR":0.0002063,"MEAN_MOTION_DOT":9.8e-7,"MEAN_MOTION_DDOT":0},{"OBJECT_NAME":"ONEWEB-0604","OBJECT_ID":"2022-166AC","EPOCH":"2025-10-05T01:06:26.306784","MEAN_MOTION":13.21825829,"ECCENTRICITY":0.0001734,"INCLINATION":87.9178,"RA_OF_ASC_NODE":294.8768,"ARG_OF_PERICENTER":87.677,"MEAN_ANOMALY":272.4563,"EPHEMERIS_TYPE":0,"CLASSIFICATION_TYPE":"U","NORAD_CAT_ID":54668,"ELEMENT_SET_NO":999,"REV_AT_EPOCH":13773,"BSTAR":0.00011066,"MEAN_MOTION_DOT":5.9e-7,"MEAN_MOTION_DDOT":0},{"OBJECT_NAME":"ONEWEB-0605","OBJECT_ID":"2022-166AD","EPOCH":"2025-10-05T02:46:19.725312","MEAN_MOTION":13.21823596,"ECCENTRICITY":0.000219,"INCLINATION":87.9173,"RA_OF_ASC_NODE":294.8925,"ARG_OF_PERICENTER":75.6173,"MEAN_ANOMALY":284.5204,"EPHEMERIS_TYPE":0,"CLASSIFICATION_TYPE":"U","NORAD_CAT_ID":54669,"ELEMENT_SET_NO":999,"REV_AT_EPOCH":13781,"BSTAR":-6.1528e-5,"MEAN_MOTION_DOT":-1.2e-7,"MEAN_MOTION_DDOT":0},{"OBJECT_NAME":"ONEWEB-0606","OBJECT_ID":"2022-166AE","EPOCH":"2025-10-05T01:29:08.835648","MEAN_MOTION":13.2182635,"ECCENTRICITY":0.0001993,"INCLINATION":87.9175,"RA_OF_ASC_NODE":294.9138,"ARG_OF_PERICENTER":97.1525,"MEAN_ANOMALY":262.9836,"EPHEMERIS_TYPE":0,"CLASSIFICATION_TYPE":"U","NORAD_CAT_ID":54670,"ELEMENT_SET_NO":999,"REV_AT_EPOCH":13786,"BSTAR":0.00026903,"MEAN_MOTION_DOT":1.24e-6,"MEAN_MOTION_DDOT":0},{"OBJECT_NAME":"ONEWEB-0607","OBJECT_ID":"2022-166AF","EPOCH":"2025-10-05T00:41:26.802816","MEAN_MOTION":13.21826914,"ECCENTRICITY":0.0001834,"INCLINATION":87.9177,"RA_OF_ASC_NODE":294.8841,"ARG_OF_PERICENTER":88.5195,"MEAN_ANOMALY":271.6149,"EPHEMERIS_TYPE":0,"CLASSIFICATION_TYPE":"U","NORAD_CAT_ID":54671,"ELEMENT_SET_NO":999,"REV_AT_EPOCH":13783,"BSTAR":4.2166e-5,"MEAN_MOTION_DOT":3.0e-7,"MEAN_MOTION_DDOT":0},{"OBJECT_NAME":"ONEWEB-0608","OBJECT_ID":"2022-166AG","EPOCH":"2025-10-05T00:50:31.998048","MEAN_MOTION":13.21825862,"ECCENTRICITY":0.0001879,"INCLINATION":87.9176,"RA_OF_ASC_NODE":294.8664,"ARG_OF_PERICENTER":75.9548,"MEAN_ANOMALY":284.1795,"EPHEMERIS_TYPE":0,"CLASSIFICATION_TYPE":"U","NORAD_CAT_ID":54672,"ELEMENT_SET_NO":999,"REV_AT_EPOCH":13784,"BSTAR":2.2261e-5,"MEAN_MOTION_DOT":2.2e-7,"MEAN_MOTION_DDOT":0},{"OBJECT_NAME":"ONEWEB-0610","OBJECT_ID":"2022-166AH","EPOCH":"2025-10-05T02:12:17.434944","MEAN_MOTION":13.21826238,"ECCENTRICITY":0.0001957,"INCLINATION":87.9176,"RA_OF_ASC_NODE":294.8928,"ARG_OF_PERICENTER":73.37,"MEAN_ANOMALY":286.7649,"EPHEMERIS_TYPE":0,"CLASSIFICATION_TYPE":"U","NORAD_CAT_ID":54673,"ELEMENT_SET_NO":999,"REV_AT_EPOCH":13775,"BSTAR":3.2234e-5,"MEAN_MOTION_DOT":2.6e-7,"MEAN_MOTION_DDOT":0},{"OBJECT_NAME":"ONEWEB-0611","OBJECT_ID":"2022-166AJ","EPOCH":"2025-10-05T02:03:12.211200","MEAN_MOTION":13.21824308,"ECCENTRICITY":0.0001909,"INCLINATION":87.9177,"RA_OF_ASC_NODE":294.8899,"ARG_OF_PERICENTER":98.2965,"MEAN_ANOMALY":261.8386,"EPHEMERIS_TYPE":0,"CLASSIFICATION_TYPE":"U","NORAD_CAT_ID":54674,"ELEMENT_SET_NO":999,"REV_AT_EPOCH":13774,"BSTAR":-4.9996e-6,"MEAN_MOTION_DOT":1.1e-7,"MEAN_MOTION_DDOT":0},{"OBJECT_NAME":"ONEWEB-0612","OBJECT_ID":"2022-166AK","EPOCH":"2025-10-05T00:32:22.907040","MEAN_MOTION":13.21826044,"ECCENTRICITY":0.0001893,"INCLINATION":87.9179,"RA_OF_ASC_NODE":294.8801,"ARG_OF_PERICENTER":88.67,"MEAN_ANOMALY":271.4651,"EPHEMERIS_TYPE":0,"CLASSIFICATION_TYPE":"U","NORAD_CAT_ID":54675,"ELEMENT_SET_NO":999,"REV_AT_EPOCH":13772,"BSTAR":0.00029548,"MEAN_MOTION_DOT":1.35e-6,"MEAN_MOTION_DDOT":0}]
