ONEWEB-0593             
1 54659U 22166T   25278.08712225  .00000034  00000+0  51169-4 0  9999
2 54659  87.9174 294.8861 0001735  89.1599 270.9734 13.21824659137848
ONEWEB-0594             
1 54660U 22166U   25278.10606862  .00000005  00000+0 -19101-4 0  9992
2 54660  87.9178 294.8996 0001860  92.6246 267.5101 13.21825785137863
ONEWEB-0595             
1 54661U 22166V   25278.08398633  .00000007  00000+0 -13563-4 0  9992
2 54661  87.9177 294.8788 0002053  96.0154 264.1214 13.21824408137839
ONEWEB-0596             
1 54662U 22166W   25278.05718168  .00000104  00000+0  21953-3 0  9997
2 54662  87.9177 294.8997 0001977  91.5622 268.5739 13.21824720137833
ONEWEB-0597             
1 54663U 22166X   25278.11395289 -.00000004  00000+0 -41295-4 0  9993
2 54663  87.9174 294.8922 0001857  87.7584 272.3762 13.21825277137848
ONEWEB-0600             
1 54664U 22166Y   25278.09660713 -.00000058  00000+0 -17227-3 0  9994
2 54664  87.9178 294.8877 0001756  88.5455 271.5880 13.21825166137812
ONEWEB-0601             
1 54665U 22166Z   25278.08871074 -.00000008  00000+0 -51964-4 0  9990
2 54665  87.9182 294.9066 0001862  81.9990 278.1355 13.21823616138008
ONEWEB-0602             
1 54666U 22166AA  25278.12836837  .00023989  00000+0  57615-1 0  9991
2 54666  87.9188 294.9005 0001062  81.4032 278.7223 13.22158950137857
ONEWEB-0603             
1 54667U 22166AB  25278.05874748  .00000098  00000+0  20630-3 0  9992
2 54667  87.9183 294.8496 0001782  88.1187 272.0151 13.21825484137770
ONEWEB-0604             
1 54668U 22166AC  25278.04613781  .00000059  00000+0  11066-3 0  9990
2 54668  87.9178 294.8768 0001734  87.6770 272.4563 13.21825829137736
ONEWEB-0605             
1 54669U 22166AD  25278.11550608 -.00000012  00000+0 -61528-4 0  9997
2 54669  87.9173 294.8925 0002190  75.6173 284.5204 13.21823596137812
ONEWEB-0606             
1 54670U 22166AE  25278.06190782  .00000124  00000+0  26903-3 0  9995
2 54670  87.9175 294.9138 0001993  97.1525 262.9836 13.21826350137860
ONEWEB-0607             
1 54671U 22166AF  25278.02878244  .00000030  00000+0  42166-4 0  9994
2 54671  87.9177 294.8841 0001834  88.5195 271.6149 13.21826914137831
ONEWEB-0608             
1 54672U 22166AG  25278.03509257  .00000022  00000+0  22261-4 0  9996
2 54672  87.9176 294.8664 0001879  75.9548 284.1795 13.21825862137843
ONEWEB-0610             
1 54673U 22166AH  25278.09186846  .00000026  00000+0  32234-4 0  9993
2 54673  87.9176 294.8928 0001957  73.3700 286.7649 13.21826238137750
ONEWEB-0611             
1 54674U 22166AJ  25278.08555800  .00000011  00000+0 -49996-5 0  9992
2 54674  87.9177 294.8899 0001909  98.2965 261.8386 13.21824308137742
ONEWEB-0612             
1 54675U 22166AK  25278.02248735  .00000135  00000+0  29548-3 0  9998
2 54675  87.9179 294.8801 0001893  88.6700 271.4651 13.21826044137729
